[{"OBJECT_NAME":"STARLINK-2135","OBJECT_ID":"2021-005BM","EPOCH":"2026-03-09T06:41:25.174176","MEAN_MOTION":15.06388595,"ECCENTRICITY":0.00014279,"INCLINATION":53.0558,"RA_OF_ASC_NODE":33.4642,"ARG_OF_PERICENTER":97.2459,"MEAN_ANOMALY":262.8693,"EPHEMERIS_TYPE":0,"CLASSIFICATION_TYPE":"U","NORAD_CAT_ID":47408,"ELEMENT_SET_NO":999,"REV_AT_EPOCH":28340,"BSTAR":6.4833365e-5,"MEAN_MOTION_DOT":6.84e-6,"MEAN_MOTION_DDOT":0},{"OBJECT_NAME":"COSMOS 397 DEB","OBJECT_ID":"1971-015K","EPOCH":"2026-03-09T22:19:18.882624","MEAN_MOTION":13.64687983,"ECCENTRICITY":0.06428394,"INCLINATION":65.8167,"RA_OF_ASC_NODE":317.2661,"ARG_OF_PERICENTER":130.2225,"MEAN_ANOMALY":235.6932,"EPHEMERIS_TYPE":0,"CLASSIFICATION_TYPE":"U","NORAD_CAT_ID":5016,"ELEMENT_SET_NO":999,"REV_AT_EPOCH":63965,"BSTAR":0.0010600435,"MEAN_MOTION_DOT":3.54e-5,"MEAN_MOTION_DDOT":0}]
